[{"OBJECT_NAME":"STARLINK-31544","OBJECT_ID":"2024-064B","EPOCH":"2025-11-26T04:36:34.352064","MEAN_MOTION":15.27582833,"ECCENTRICITY":0.0001233,"INCLINATION":43.0034,"RA_OF_ASC_NODE":280.9825,"ARG_OF_PERICENTER":283.1273,"MEAN_ANOMALY":76.9441,"EPHEMERIS_TYPE":0,"CLASSIFICATION_TYPE":"U","NORAD_CAT_ID":59399,"ELEMENT_SET_NO":999,"REV_AT_EPOCH":9339,"BSTAR":1.2978e-6,"MEAN_MOTION_DOT":-2.26e-6,"MEAN_MOTION_DDOT":0},{"OBJECT_NAME":"STARLINK-31545","OBJECT_ID":"2024-064C","EPOCH":"2025-11-26T03:39:13.173120","MEAN_MOTION":15.27588223,"ECCENTRICITY":0.0002083,"INCLINATION":42.9968,"RA_OF_ASC_NODE":280.6816,"ARG_OF_PERICENTER":232.5017,"MEAN_ANOMALY":127.5645,"EPHEMERIS_TYPE":0,"CLASSIFICATION_TYPE":"U","NORAD_CAT_ID":59400,"ELEMENT_SET_NO":999,"REV_AT_EPOCH":9339,"BSTAR":-0.00024216,"MEAN_MOTION_DOT":-6.922e-5,"MEAN_MOTION_DDOT":0},{"OBJECT_NAME":"STARLINK-31507","OBJECT_ID":"2024-064D","EPOCH":"2025-11-26T03:48:27.944928","MEAN_MOTION":15.27572976,"ECCENTRICITY":3.24e-5,"INCLINATION":42.997,"RA_OF_ASC_NODE":280.7212,"ARG_OF_PERICENTER":267.6539,"MEAN_ANOMALY":92.4275,"EPHEMERIS_TYPE":0,"CLASSIFICATION_TYPE":"U","NORAD_CAT_ID":59401,"ELEMENT_SET_NO":999,"REV_AT_EPOCH":9333,"BSTAR":-4.8425e-5,"MEAN_MOTION_DOT":-1.594e-5,"MEAN_MOTION_DDOT":0},{"OBJECT_NAME":"STARLINK-31543","OBJECT_ID":"2024-064E","EPOCH":"2025-11-25T14:18:03.803040","MEAN_MOTION":15.27574955,"ECCENTRICITY":4.912e-5,"INCLINATION":43.0027,"RA_OF_ASC_NODE":284.2464,"ARG_OF_PERICENTER":315.9363,"MEAN_ANOMALY":44.1449,"EPHEMERIS_TYPE":0,"CLASSIFICATION_TYPE":"U","NORAD_CAT_ID":59402,"ELEMENT_SET_NO":999,"REV_AT_EPOCH":9330,"BSTAR":-9.7502804e-5,"MEAN_MOTION_DOT":-2.943e-5,"MEAN_MOTION_DDOT":0},{"OBJECT_NAME":"STARLINK-31366","OBJECT_ID":"2024-064F","EPOCH":"2025-11-25T13:57:42.043968","MEAN_MOTION":15.27579942,"ECCENTRICITY":0.00011247,"INCLINATION":43.0069,"RA_OF_ASC_NODE":284.1324,"ARG_OF_PERICENTER":300.2083,"MEAN_ANOMALY":59.8657,"EPHEMERIS_TYPE":0,"CLASSIFICATION_TYPE":"U","NORAD_CAT_ID":59403,"ELEMENT_SET_NO":999,"REV_AT_EPOCH":9330,"BSTAR":0.0001723648,"MEAN_MOTION_DOT":4.484e-5,"MEAN_MOTION_DDOT":0},{"OBJECT_NAME":"STARLINK-31374","OBJECT_ID":"2024-064G","EPOCH":"2025-11-26T03:35:26.452608","MEAN_MOTION":15.27583087,"ECCENTRICITY":0.0001484,"INCLINATION":42.9991,"RA_OF_ASC_NODE":229.847,"ARG_OF_PERICENTER":290.1503,"MEAN_ANOMALY":69.9189,"EPHEMERIS_TYPE":0,"CLASSIFICATION_TYPE":"U","NORAD_CAT_ID":59404,"ELEMENT_SET_NO":999,"REV_AT_EPOCH":9372,"BSTAR":0.0013697,"MEAN_MOTION_DOT":0.00037626,"MEAN_MOTION_DDOT":0},{"OBJECT_NAME":"STARLINK-31400","OBJECT_ID":"2024-064H","EPOCH":"2025-11-26T03:28:07.010112","MEAN_MOTION":15.27570225,"ECCENTRICITY":7.78e-5,"INCLINATION":43.0024,"RA_OF_ASC_NODE":280.6218,"ARG_OF_PERICENTER":264.2678,"MEAN_ANOMALY":95.8085,"EPHEMERIS_TYPE":0,"CLASSIFICATION_TYPE":"U","NORAD_CAT_ID":59405,"ELEMENT_SET_NO":999,"REV_AT_EPOCH":9339,"BSTAR":-2.604e-5,"MEAN_MOTION_DOT":-9.78e-6,"MEAN_MOTION_DDOT":0},{"OBJECT_NAME":"STARLINK-31391","OBJECT_ID":"2024-064J","EPOCH":"2025-11-26T03:33:39.983616","MEAN_MOTION":15.27571705,"ECCENTRICITY":0.0001716,"INCLINATION":43.0024,"RA_OF_ASC_NODE":280.6516,"ARG_OF_PERICENTER":273.8909,"MEAN_ANOMALY":86.1746,"EPHEMERIS_TYPE":0,"CLASSIFICATION_TYPE":"U","NORAD_CAT_ID":59406,"ELEMENT_SET_NO":999,"REV_AT_EPOCH":9339,"BSTAR":-6.4015e-6,"MEAN_MOTION_DOT":-4.38e-6,"MEAN_MOTION_DDOT":0},{"OBJECT_NAME":"STARLINK-31387","OBJECT_ID":"2024-064K","EPOCH":"2025-11-26T04:31:01.591104","MEAN_MOTION":15.27567751,"ECCENTRICITY":0.0001106,"INCLINATION":43.0024,"RA_OF_ASC_NODE":280.9522,"ARG_OF_PERICENTER":267.8836,"MEAN_ANOMALY":92.1889,"EPHEMERIS_TYPE":0,"CLASSIFICATION_TYPE":"U","NORAD_CAT_ID":59407,"ELEMENT_SET_NO":999,"REV_AT_EPOCH":9339,"BSTAR":-1.7464e-6,"MEAN_MOTION_DOT":-3.1e-6,"MEAN_MOTION_DDOT":0},{"OBJECT_NAME":"STARLINK-31396","OBJECT_ID":"2024-064M","EPOCH":"2025-11-25T23:08:04.194816","MEAN_MOTION":15.2759351,"ECCENTRICITY":0.00015818,"INCLINATION":43.0009,"RA_OF_ASC_NODE":271.4552,"ARG_OF_PERICENTER":255.0693,"MEAN_ANOMALY":104.9984,"EPHEMERIS_TYPE":0,"CLASSIFICATION_TYPE":"U","NORAD_CAT_ID":59409,"ELEMENT_SET_NO":999,"REV_AT_EPOCH":9342,"BSTAR":0.00028744703,"MEAN_MOTION_DOT":7.659e-5,"MEAN_MOTION_DDOT":0},{"OBJECT_NAME":"STARLINK-31412","OBJECT_ID":"2024-064N","EPOCH":"2025-11-26T03:59:33.859104","MEAN_MOTION":15.27569056,"ECCENTRICITY":0.0001035,"INCLINATION":43.0016,"RA_OF_ASC_NODE":280.778,"ARG_OF_PERICENTER":292.3142,"MEAN_ANOMALY":67.76,"EPHEMERIS_TYPE":0,"CLASSIFICATION_TYPE":"U","NORAD_CAT_ID":59410,"ELEMENT_SET_NO":999,"REV_AT_EPOCH":9339,"BSTAR":4.9747e-5,"MEAN_MOTION_DOT":1.107e-5,"MEAN_MOTION_DDOT":0},{"OBJECT_NAME":"STARLINK-31483","OBJECT_ID":"2024-064P","EPOCH":"2025-11-26T04:16:13.793088","MEAN_MOTION":15.27571343,"ECCENTRICITY":6.83e-5,"INCLINATION":43.0013,"RA_OF_ASC_NODE":280.8699,"ARG_OF_PERICENTER":262.1728,"MEAN_ANOMALY":97.9046,"EPHEMERIS_TYPE":0,"CLASSIFICATION_TYPE":"U","NORAD_CAT_ID":59411,"ELEMENT_SET_NO":999,"REV_AT_EPOCH":9339,"BSTAR":-6.273e-5,"MEAN_MOTION_DOT":-1.987e-5,"MEAN_MOTION_DDOT":0},{"OBJECT_NAME":"STARLINK-31568","OBJECT_ID":"2024-064Q","EPOCH":"2025-11-26T04:19:55.868736","MEAN_MOTION":15.27570215,"ECCENTRICITY":0.0001897,"INCLINATION":43.0029,"RA_OF_ASC_NODE":280.8889,"ARG_OF_PERICENTER":286.6898,"MEAN_ANOMALY":73.3745,"EPHEMERIS_TYPE":0,"CLASSIFICATION_TYPE":"U","NORAD_CAT_ID":59412,"ELEMENT_SET_NO":999,"REV_AT_EPOCH":9339,"BSTAR":-9.3061e-5,"MEAN_MOTION_DOT":-2.822e-5,"MEAN_MOTION_DDOT":0},{"OBJECT_NAME":"STARLINK-31615","OBJECT_ID":"2024-064R","EPOCH":"2025-11-26T04:10:11.916192","MEAN_MOTION":15.275764,"ECCENTRICITY":0.0001129,"INCLINATION":43.0052,"RA_OF_ASC_NODE":273.8975,"ARG_OF_PERICENTER":267.269,"MEAN_ANOMALY":92.8032,"EPHEMERIS_TYPE":0,"CLASSIFICATION_TYPE":"U","NORAD_CAT_ID":59413,"ELEMENT_SET_NO":999,"REV_AT_EPOCH":9347,"BSTAR":2.2909e-5,"MEAN_MOTION_DOT":3.68e-6,"MEAN_MOTION_DDOT":0},{"OBJECT_NAME":"STARLINK-31457","OBJECT_ID":"2024-064S","EPOCH":"2025-11-26T04:13:54.452352","MEAN_MOTION":15.27574927,"ECCENTRICITY":0.0001501,"INCLINATION":43.0023,"RA_OF_ASC_NODE":273.9095,"ARG_OF_PERICENTER":272.2188,"MEAN_ANOMALY":87.8491,"EPHEMERIS_TYPE":0,"CLASSIFICATION_TYPE":"U","NORAD_CAT_ID":59414,"ELEMENT_SET_NO":999,"REV_AT_EPOCH":9347,"BSTAR":-2.9962e-5,"MEAN_MOTION_DOT":-1.086e-5,"MEAN_MOTION_DDOT":0},{"OBJECT_NAME":"STARLINK-31398","OBJECT_ID":"2024-064T","EPOCH":"2025-11-26T03:54:00.866592","MEAN_MOTION":15.27581068,"ECCENTRICITY":4.3e-5,"INCLINATION":42.9975,"RA_OF_ASC_NODE":280.7485,"ARG_OF_PERICENTER":275.1359,"MEAN_ANOMALY":84.9444,"EPHEMERIS_TYPE":0,"CLASSIFICATION_TYPE":"U","NORAD_CAT_ID":59415,"ELEMENT_SET_NO":999,"REV_AT_EPOCH":9339,"BSTAR":2.2735e-5,"MEAN_MOTION_DOT":3.64e-6,"MEAN_MOTION_DDOT":0},{"OBJECT_NAME":"STARLINK-31399","OBJECT_ID":"2024-064U","EPOCH":"2025-11-26T03:44:43.202112","MEAN_MOTION":15.27616188,"ECCENTRICITY":8.55e-5,"INCLINATION":43.0007,"RA_OF_ASC_NODE":280.6982,"ARG_OF_PERICENTER":258.7358,"MEAN_ANOMALY":101.3398,"EPHEMERIS_TYPE":0,"CLASSIFICATION_TYPE":"U","NORAD_CAT_ID":59416,"ELEMENT_SET_NO":999,"REV_AT_EPOCH":9339,"BSTAR":0.00012767,"MEAN_MOTION_DOT":3.257e-5,"MEAN_MOTION_DDOT":0}]
