STARLINK-31544          
1 59399U 24064B   25330.19206426 -.00000226  00000+0  12978-5 0  9996
2 59399  43.0034 280.9825 0001233 283.1273  76.9441 15.27582833 93399
STARLINK-31545          
1 59400U 24064C   25330.15223580 -.00006922  00000+0 -24216-3 0  9991
2 59400  42.9968 280.6816 0002083 232.5017 127.5645 15.27588223 93399
STARLINK-31507          
1 59401U 24064D   25330.15865677 -.00001594  00000+0 -48425-4 0  9990
2 59401  42.9970 280.7212 0000324 267.6539  92.4275 15.27572976 93339
STARLINK-31543          
1 59402U 24064E   25329.59587735 -.00002943  00000+0 -97503-4 0  9993
2 59402  43.0027 284.2464 0000491 315.9363  44.1449 15.27574955 93303
STARLINK-31366          
1 59403U 24064F   25329.58173662  .00004484  00000+0  17236-3 0  9997
2 59403  43.0069 284.1324 0001124 300.2083  59.8657 15.27579942 93309
STARLINK-31374          
1 59404U 24064G   25330.14961172  .00037626  00000+0  13697-2 0  9993
2 59404  42.9991 229.8470 0001484 290.1503  69.9189 15.27583087 93726
STARLINK-31400          
1 59405U 24064H   25330.14452558 -.00000978  00000+0 -26040-4 0  9997
2 59405  43.0024 280.6218 0000778 264.2678  95.8085 15.27570225 93397
STARLINK-31391          
1 59406U 24064J   25330.14837944 -.00000438  00000+0 -64015-5 0  9990
2 59406  43.0024 280.6516 0001716 273.8909  86.1746 15.27571705 93396
STARLINK-31387          
1 59407U 24064K   25330.18821286 -.00000310  00000+0 -17464-5 0  9992
2 59407  43.0024 280.9522 0001106 267.8836  92.1889 15.27567751 93393
STARLINK-31396          
1 59409U 24064M   25329.96393744  .00007659  00000+0  28745-3 0  9994
2 59409  43.0009 271.4552 0001581 255.0693 104.9984 15.27593510 93427
STARLINK-31412          
1 59410U 24064N   25330.16636411  .00001107  00000+0  49747-4 0  9999
2 59410  43.0016 280.7780 0001035 292.3142  67.7600 15.27569056 93395
STARLINK-31483          
1 59411U 24064P   25330.17793742 -.00001987  00000+0 -62730-4 0  9997
2 59411  43.0013 280.8699 0000683 262.1728  97.9046 15.27571343 93397
STARLINK-31568          
1 59412U 24064Q   25330.18050774 -.00002822  00000+0 -93061-4 0  9990
2 59412  43.0029 280.8889 0001897 286.6898  73.3745 15.27570215 93394
STARLINK-31615          
1 59413U 24064R   25330.17374903  .00000368  00000+0  22909-4 0  9997
2 59413  43.0052 273.8975 0001129 267.2690  92.8032 15.27576400 93478
STARLINK-31457          
1 59414U 24064S   25330.17632468 -.00001086  00000+0 -29962-4 0  9997
2 59414  43.0023 273.9095 0001501 272.2188  87.8491 15.27574927 93478
STARLINK-31398          
1 59415U 24064T   25330.16251003  .00000364  00000+0  22735-4 0  9996
2 59415  42.9975 280.7485 0000430 275.1359  84.9444 15.27581068 93395
STARLINK-31399          
1 59416U 24064U   25330.15605558  .00003257  00000+0  12767-3 0  9991
2 59416  43.0007 280.6982 0000855 258.7358 101.3398 15.27616188 93396
